#aV2014  2  6  0  0  0.00000000     288 DD+AD WGS84 FIT  NGA
## 1778 345600.00000000   300.00000000 56694 0.0000000000000
+   32     1  2  3  4  5  6  7  8  9 10 11 12 13 14 15 16 17
+         18 19 20 21 22 23 24 25 26 27 28 29 30 31 32  0  0
+          0  0  0  0  0  0  0  0  0  0  0  0  0  0  0  0  0
+          0  0  0  0  0  0  0  0  0  0  0  0  0  0  0  0  0
+          0  0  0  0  0  0  0  0  0  0  0  0  0  0  0  0  0
++         2  2  2  2  2  2  2  2  2  2  2  2  2  2  2  2  2
++         2  2  2  2  2  2  2  2  2  2  2  2  2  2  2  0  0
++         0  0  0  0  0  0  0  0  0  0  0  0  0  0  0  0  0
++         0  0  0  0  0  0  0  0  0  0  0  0  0  0  0  0  0
++         0  0  0  0  0  0  0  0  0  0  0  0  0  0  0  0  0
%c cc cc ccc ccc cccc cccc cccc cccc ccccc ccccc ccccc ccccc
%c cc cc ccc ccc cccc cccc cccc cccc ccccc ccccc ccccc ccccc
%f  0.0000000  0.000000000  0.00000000000  0.000000000000000
%f  0.0000000  0.000000000  0.00000000000  0.000000000000000
%i    0    0    0    0      0      0      0      0         0
%i    0    0    0    0      0      0      0      0         0
/*      NGA, ST. LOUIS,MO.                                  
/*   EPHEMERIS COMPUTED FROM  1 DAYS OF DATA                
/*   EPOCHA SMOOTHER                                       
/* CCCCCCCCCCCCCCCCCCCCCCCCCCCCCCCCCCCCCCCCCCCCCCCCCCCCCCCCC
*  2014  2  6 12  0  0.00000000
P  1  19324.751219  13457.335773 -12434.631063     -2.386892                    
V  1 -15784.637628  -1426.086724 -26023.760004      0.022463                    
P  2   2304.790389 -15650.800768  21604.631741    477.069101                    
V  2  26316.999299   5555.007022    726.139029      0.021913                    
P  3  -3467.933283  22765.378402 -13629.798220    322.189864                    
V  3 -11615.126391  12104.371655  24303.624595      0.049847                    
P  4  19122.961044  -8050.751472  16408.334794      5.362743                    
V  4  20397.111506   6790.743011 -19824.465503      0.002637                    
P  5  -1592.244024 -25107.098323   8225.366647   -389.637713                    
V  5   6125.231331   9162.707609  29160.129571      0.014984                    
P  6 -11737.036014  22507.422723  -7019.427590    265.159701                    
V  6  -8473.835382   4841.851385  29885.958570      0.146699                    
P  7  26069.260972   5807.711179  -1181.310125    310.902550                    
V  7    997.312471   2433.995728  31795.175521      0.041716                    
P  8  23800.492343    171.666692 -12257.303827     11.754261                    
V  8  14268.537684   6190.587096  26880.669599      0.001406                    
P  9  23131.268293  -3667.298727 -13206.718563    303.507056                    
V  9  15075.053988   4980.139783  25921.368784      0.028093                    
P 10  11743.134871 -12037.718105  20130.118465   -113.155302                    
V 10   8688.671582  25050.646986  10171.474402     -0.015925                    
P 11  12972.470562  14215.249425 -18864.823879   -461.974041                    
V 11 -22962.290606   3911.467615 -12957.099992     -0.032643                    
P 12 -11390.123303 -22816.494547   7769.978195    184.766531                    
V 12   -879.512617  -9960.659864 -30128.207688      0.023294                    
P 13  18398.535075    983.862501  19049.465711     32.372493                    
V 13 -17690.773149  16810.065697  15961.173617     -0.038392                    
P 14 -21546.566976  13834.318519  -6555.550554    200.520571                    
V 14   4614.386848  -7717.480119 -30602.582735     -0.031100                    
P 15  -3907.634775 -17436.875425 -19612.100277   -161.650930                    
V 15  17561.768186 -17813.563406  12657.306026     -0.020705                    
P 16    758.071916  25121.305769   7983.890646   -232.595880                    
V 16  -4523.239780  -9442.050727  30359.926761      0.014649                    
P 17  20882.333959 -15078.903694  -5705.109542    -65.884427                    
V 17  -3487.234095   7294.886449 -30944.245372     -0.033354                    
P 18 -16999.416554  -6081.629044 -19150.443369    300.368054                    
V 18  -6094.233434 -24575.063400  12591.242131      0.022018                    
P 19   1215.954256  17448.599577 -19978.711073   -437.108599                    
V 19 -19692.009994  15805.265358  13114.759167     -0.024815                    
P 20  14610.754694  20333.763586   8776.921160    159.338513                    
V 20    696.539534  11953.471195 -28162.225935      0.033046                    
P 21 -26314.792762  -4667.036274  -1652.160435   -342.449384                    
V 21  -2004.248206  -3855.723901  30716.876635     -0.021698                    
P 22 -14013.547534   8042.909617 -20869.366376    211.579655                    
V 22  -8648.633178 -25715.113184  -4219.460264      0.024842                    
P 23  10829.898509  10997.598763  21701.685953      6.285883                    
V 23 -19050.295908  19655.347691   -856.590302     -0.032543                    
P 24 -15109.823791 -14882.013997 -16052.567313    -22.845378                    
V 24  20274.764548   2503.313751 -21331.517367     -0.006577                    
P 25 -16044.625895 -12337.530571  17206.658725     13.190598                    
V 25  -5141.459990 -21311.265067 -19888.119141      0.019443                    
P 26   8980.789349 -20802.810527 -14247.956533    172.939526                    
V 26  14004.369424  -9952.801428  24799.037931     -0.109507                    
P 27 -10087.415297  22018.091050 -10865.154233    -17.737852                    
V 27 -11164.711701   8473.056434  27575.003364     -0.013678                    
P 28  13857.185789  -3915.063265 -21711.498906    330.424432                    
V 28   6880.601807  28153.252535   -805.603010      0.029389                    
P 29 -16619.831210  -3483.457356  20457.024766    508.857188                    
V 29  17924.923489 -18667.763876  11449.399775      0.028733                    
P 30  -9377.735136  14922.939078  19645.186005   -154.527718                    
V 30  -8160.277085 -23976.383737  14409.376674      0.007403                    
P 31 -15954.758747   9289.388985  19375.315852    333.017647                    
V 31 -23098.569069  -6925.492618 -15530.213997      0.003173                    
P 32   5334.083200  26318.592244   -443.157004   -490.173724                    
V 32  -2836.044937    -42.412119 -31104.969371      0.061779                    
EOF
